start=new Date('2021-10-19T00:00:00.000Z').valueOf();
sats=[{"PERIAPSIS":"545.788","RA_OF_ASC_NODE":"117.7866","MEAN_ELEMENT_THEORY":"SGP4","LAUNCH_DATE":"2021-05-26","CENTER_NAME":"EARTH","BSTAR":"0.00007571900000","EPOCH":"2021-10-18T16:23:36.928320","COUNTRY_CODE":"US","PERIOD":"95.593","SEMIMAJOR_AXIS":"6925.372","EPHEMERIS_TYPE":"0","REF_FRAME":"TEME","MEAN_MOTION":"15.06392352","OBJECT_TYPE":"PAYLOAD","OBJECT_NAME":"STARLINK-2672","MEAN_MOTION_DDOT":"0.0000000000000","MEAN_MOTION_DOT":"0.00000846","GP_ID":"187538169","ECCENTRICITY":"0.00020920","FILE":"3170620","SITE":"AFETR","ARG_OF_PERICENTER":"74.9389","MEAN_ANOMALY":"285.1832","ELEMENT_SET_NO":"999","TIME_SYSTEM":"UTC","NORAD_CAT_ID":"48650","CLASSIFICATION_TYPE":"U","TLE_LINE1":"1 48650U 21044N   21291.68306630  .00000846  00000-0  75719-4 0  9992","TLE_LINE2":"2 48650  53.0547 117.7866 0002092  74.9389 285.1832 15.06392352 22096","APOAPSIS":"548.686","DECAY_DATE":null,"INCLINATION":"53.0547","RCS_SIZE":"LARGE","OBJECT_ID":"2021-044N","REV_AT_EPOCH":"2209"},{"REV_AT_EPOCH":"2209","OBJECT_ID":"2021-044P","RCS_SIZE":"LARGE","INCLINATION":"53.0536","DECAY_DATE":null,"APOAPSIS":"548.619","TLE_LINE2":"2 48651  53.0536 117.7988 0002015  82.7697 277.3521 15.06396646 22092","TLE_LINE1":"1 48651U 21044P   21291.67935548  .00000600  00000-0  59163-4 0  9991","CLASSIFICATION_TYPE":"U","NORAD_CAT_ID":"48651","ELEMENT_SET_NO":"999","TIME_SYSTEM":"UTC","MEAN_ANOMALY":"277.3521","ARG_OF_PERICENTER":"82.7697","SITE":"AFETR","FILE":"3170620","GP_ID":"187538619","ECCENTRICITY":"0.00020150","MEAN_MOTION_DDOT":"0.0000000000000","MEAN_MOTION_DOT":"0.00000600","OBJECT_NAME":"STARLINK-2731","OBJECT_TYPE":"PAYLOAD","MEAN_MOTION":"15.06396646","EPHEMERIS_TYPE":"0","REF_FRAME":"TEME","SEMIMAJOR_AXIS":"6925.359","PERIOD":"95.592","COUNTRY_CODE":"US","EPOCH":"2021-10-18T16:18:16.313472","BSTAR":"0.00005916300000","CENTER_NAME":"EARTH","LAUNCH_DATE":"2021-05-26","MEAN_ELEMENT_THEORY":"SGP4","PERIAPSIS":"545.828","RA_OF_ASC_NODE":"117.7988"},{"APOAPSIS":"548.321","TLE_LINE1":"1 48652U 21044Q   21291.54298255  .00002353  00000-0  17681-3 0  9990","TLE_LINE2":"2 48652  53.0544 118.4088 0001610  77.9039 282.2130 15.06402459 22076","OBJECT_ID":"2021-044Q","REV_AT_EPOCH":"2207","DECAY_DATE":null,"INCLINATION":"53.0544","RCS_SIZE":"LARGE","ELEMENT_SET_NO":"999","TIME_SYSTEM":"UTC","MEAN_ANOMALY":"282.2130","ARG_OF_PERICENTER":"77.9039","CLASSIFICATION_TYPE":"U","NORAD_CAT_ID":"48652","OBJECT_TYPE":"PAYLOAD","OBJECT_NAME":"STARLINK-2727","EPHEMERIS_TYPE":"0","REF_FRAME":"TEME","MEAN_MOTION":"15.06402459","FILE":"3170620","SITE":"AFETR","MEAN_MOTION_DDOT":"0.0000000000000","MEAN_MOTION_DOT":"0.00002353","ECCENTRICITY":"0.00016100","GP_ID":"187538395","LAUNCH_DATE":"2021-05-26","CENTER_NAME":"EARTH","PERIAPSIS":"546.091","RA_OF_ASC_NODE":"118.4088","MEAN_ELEMENT_THEORY":"SGP4","PERIOD":"95.592","SEMIMAJOR_AXIS":"6925.341","BSTAR":"0.00017681000000","EPOCH":"2021-10-18T13:01:53.692320","COUNTRY_CODE":"US"},{"SITE":"AFETR","FILE":"3170620","GP_ID":"187538841","ECCENTRICITY":"0.00018600","MEAN_MOTION_DOT":"0.00000797","MEAN_MOTION_DDOT":"0.0000000000000","OBJECT_NAME":"STARLINK-2720","OBJECT_TYPE":"PAYLOAD","MEAN_MOTION":"15.06400506","REF_FRAME":"TEME","EPHEMERIS_TYPE":"0","SEMIMAJOR_AXIS":"6925.347","PERIOD":"95.592","COUNTRY_CODE":"US","BSTAR":"0.00007237800000","EPOCH":"2021-10-18T16:07:39.860832","CENTER_NAME":"EARTH","LAUNCH_DATE":"2021-05-26","MEAN_ELEMENT_THEORY":"SGP4","PERIAPSIS":"545.924","RA_OF_ASC_NODE":"117.8334","REV_AT_EPOCH":"2209","OBJECT_ID":"2021-044R","RCS_SIZE":"LARGE","INCLINATION":"53.0545","DECAY_DATE":null,"APOAPSIS":"548.500","TLE_LINE2":"2 48653  53.0545 117.8334 0001860  74.0878 286.0316 15.06400506 22092","TLE_LINE1":"1 48653U 21044R   21291.67198913  .00000797  00000-0  72378-4 0  9990","CLASSIFICATION_TYPE":"U","NORAD_CAT_ID":"48653","ELEMENT_SET_NO":"999","TIME_SYSTEM":"UTC","ARG_OF_PERICENTER":"74.0878","MEAN_ANOMALY":"286.0316"},{"CLASSIFICATION_TYPE":"U","NORAD_CAT_ID":"48654","ELEMENT_SET_NO":"999","TIME_SYSTEM":"UTC","ARG_OF_PERICENTER":"83.6762","MEAN_ANOMALY":"276.4388","REV_AT_EPOCH":"2199","OBJECT_ID":"2021-044S","RCS_SIZE":"LARGE","DECAY_DATE":null,"INCLINATION":"53.0557","APOAPSIS":"548.233","TLE_LINE1":"1 48654U 21044S   21291.00482383 -.00003870  00000-0 -24113-3 0  9995","TLE_LINE2":"2 48654  53.0557 120.8394 0001413  83.6762 276.4388 15.06386621 21999","SEMIMAJOR_AXIS":"6925.390","PERIOD":"95.593","EPOCH":"2021-10-18T00:06:56.778912","BSTAR":"-0.00024113000000","COUNTRY_CODE":"US","LAUNCH_DATE":"2021-05-26","CENTER_NAME":"EARTH","MEAN_ELEMENT_THEORY":"SGP4","PERIAPSIS":"546.276","RA_OF_ASC_NODE":"120.8394","SITE":"AFETR","FILE":"3170121","GP_ID":"187505392","ECCENTRICITY":"0.00014130","MEAN_MOTION_DDOT":"0.0000000000000","MEAN_MOTION_DOT":"-0.00003870","OBJECT_NAME":"STARLINK-2651","OBJECT_TYPE":"PAYLOAD","MEAN_MOTION":"15.06386621","EPHEMERIS_TYPE":"0","REF_FRAME":"TEME"},{"ARG_OF_PERICENTER":"86.3470","MEAN_ANOMALY":"273.7721","TIME_SYSTEM":"UTC","ELEMENT_SET_NO":"999","NORAD_CAT_ID":"48655","CLASSIFICATION_TYPE":"U","TLE_LINE1":"1 48655U 21044T   21291.66461873  .00001031  00000-0  88135-4 0  9999","TLE_LINE2":"2 48655  53.0550 117.8706 0001767  86.3470 273.7721 15.06398275 22095","APOAPSIS":"548.443","DECAY_DATE":null,"INCLINATION":"53.0550","RCS_SIZE":"LARGE","REV_AT_EPOCH":"2209","OBJECT_ID":"2021-044T","PERIAPSIS":"545.995","RA_OF_ASC_NODE":"117.8706","MEAN_ELEMENT_THEORY":"SGP4","LAUNCH_DATE":"2021-05-26","CENTER_NAME":"EARTH","BSTAR":"0.00008813500000","EPOCH":"2021-10-18T15:57:03.058272","COUNTRY_CODE":"US","SEMIMAJOR_AXIS":"6925.354","PERIOD":"95.592","EPHEMERIS_TYPE":"0","REF_FRAME":"TEME","MEAN_MOTION":"15.06398275","OBJECT_TYPE":"PAYLOAD","OBJECT_NAME":"STARLINK-2657","MEAN_MOTION_DDOT":"0.0000000000000","MEAN_MOTION_DOT":"0.00001031","ECCENTRICITY":"0.00017670","GP_ID":"187538282","FILE":"3170620","SITE":"AFETR"},{"ELEMENT_SET_NO":"999","TIME_SYSTEM":"UTC","MEAN_ANOMALY":"280.8021","ARG_OF_PERICENTER":"79.3177","CLASSIFICATION_TYPE":"U","NORAD_CAT_ID":"48656","APOAPSIS":"548.505","TLE_LINE1":"1 48656U 21044U   21291.66093064  .00000836  00000-0  75006-4 0  9998","TLE_LINE2":"2 48656  53.0546 117.8836 0001855  79.3177 280.8021 15.06397769 22098","REV_AT_EPOCH":"2209","OBJECT_ID":"2021-044U","DECAY_DATE":null,"INCLINATION":"53.0546","RCS_SIZE":"LARGE","LAUNCH_DATE":"2021-05-26","CENTER_NAME":"EARTH","PERIAPSIS":"545.936","RA_OF_ASC_NODE":"117.8836","MEAN_ELEMENT_THEORY":"SGP4","SEMIMAJOR_AXIS":"6925.355","PERIOD":"95.592","EPOCH":"2021-10-18T15:51:44.407296","BSTAR":"0.00007500600000","COUNTRY_CODE":"US","OBJECT_TYPE":"PAYLOAD","OBJECT_NAME":"STARLINK-2701","REF_FRAME":"TEME","EPHEMERIS_TYPE":"0","MEAN_MOTION":"15.06397769","FILE":"3170620","SITE":"AFETR","MEAN_MOTION_DDOT":"0.0000000000000","MEAN_MOTION_DOT":"0.00000836","ECCENTRICITY":"0.00018550","GP_ID":"187538059"},{"CLASSIFICATION_TYPE":"U","NORAD_CAT_ID":"48657","TIME_SYSTEM":"UTC","ELEMENT_SET_NO":"999","ARG_OF_PERICENTER":"66.0504","MEAN_ANOMALY":"294.0689","OBJECT_ID":"2021-044V","REV_AT_EPOCH":"2207","DECAY_DATE":null,"INCLINATION":"53.0547","RCS_SIZE":"LARGE","APOAPSIS":"548.550","TLE_LINE1":"1 48657U 21044V   21291.52455412  .00000827  00000-0  74388-4 0  9995","TLE_LINE2":"2 48657  53.0547 118.4962 0001946  66.0504 294.0689 15.06403786 22077","PERIOD":"95.592","SEMIMAJOR_AXIS":"6925.337","EPOCH":"2021-10-18T12:35:21.475968","BSTAR":"0.00007438800000","COUNTRY_CODE":"US","LAUNCH_DATE":"2021-05-26","CENTER_NAME":"EARTH","RA_OF_ASC_NODE":"118.4962","PERIAPSIS":"545.854","MEAN_ELEMENT_THEORY":"SGP4","FILE":"3170620","SITE":"AFETR","MEAN_MOTION_DOT":"0.00000827","MEAN_MOTION_DDOT":"0.0000000000000","GP_ID":"187538733","ECCENTRICITY":"0.00019460","OBJECT_TYPE":"PAYLOAD","OBJECT_NAME":"STARLINK-2734","REF_FRAME":"TEME","EPHEMERIS_TYPE":"0","MEAN_MOTION":"15.06403786"},{"OBJECT_ID":"2021-044W","REV_AT_EPOCH":"2207","INCLINATION":"53.0557","DECAY_DATE":null,"RCS_SIZE":"LARGE","APOAPSIS":"548.264","TLE_LINE2":"2 48658  53.0557 118.5234 0001544  91.8894 268.2272 15.06406120 22070","TLE_LINE1":"1 48658U 21044W   21291.52086791  .00001002  00000-0  86152-4 0  9994","CLASSIFICATION_TYPE":"U","NORAD_CAT_ID":"48658","ELEMENT_SET_NO":"999","TIME_SYSTEM":"UTC","ARG_OF_PERICENTER":"91.8894","MEAN_ANOMALY":"268.2272","FILE":"3170620","SITE":"AFETR","MEAN_MOTION_DOT":"0.00001002","MEAN_MOTION_DDOT":"0.0000000000000","ECCENTRICITY":"0.00015440","GP_ID":"187538170","OBJECT_TYPE":"PAYLOAD","OBJECT_NAME":"STARLINK-2647","EPHEMERIS_TYPE":"0","REF_FRAME":"TEME","MEAN_MOTION":"15.06406120","SEMIMAJOR_AXIS":"6925.330","PERIOD":"95.592","COUNTRY_CODE":"US","BSTAR":"0.00008615200000","EPOCH":"2021-10-18T12:30:02.987424","CENTER_NAME":"EARTH","LAUNCH_DATE":"2021-05-26","RA_OF_ASC_NODE":"118.5234","PERIAPSIS":"546.126","MEAN_ELEMENT_THEORY":"SGP4"},{"ARG_OF_PERICENTER":"76.6804","MEAN_ANOMALY":"283.4405","ELEMENT_SET_NO":"999","TIME_SYSTEM":"UTC","NORAD_CAT_ID":"48659","CLASSIFICATION_TYPE":"U","TLE_LINE1":"1 48659U 21044X   21291.25177724  .00001532  00000-0  12172-3 0  9990","TLE_LINE2":"2 48659  53.0553 119.7255 0001973  76.6804 283.4405 15.06404593 22036","APOAPSIS":"548.566","RCS_SIZE":"LARGE","DECAY_DATE":null,"INCLINATION":"53.0553","OBJECT_ID":"2021-044X","REV_AT_EPOCH":"2203","MEAN_ELEMENT_THEORY":"SGP4","PERIAPSIS":"545.833","RA_OF_ASC_NODE":"119.7255","LAUNCH_DATE":"2021-05-26","CENTER_NAME":"EARTH","BSTAR":"0.00012172000000","EPOCH":"2021-10-18T06:02:33.553536","COUNTRY_CODE":"US","PERIOD":"95.592","SEMIMAJOR_AXIS":"6925.334","MEAN_MOTION":"15.06404593","REF_FRAME":"TEME","EPHEMERIS_TYPE":"0","OBJECT_NAME":"STARLINK-2717","OBJECT_TYPE":"PAYLOAD","ECCENTRICITY":"0.00019730","GP_ID":"187505281","MEAN_MOTION_DOT":"0.00001532","MEAN_MOTION_DDOT":"0.0000000000000","SITE":"AFETR","FILE":"3170121"}];
